ONEWEB-0243             
1 48774U 21045H   25275.07845495  .00000105  00000+0  24480-3 0  9991
2 48774  87.9001 310.7323 0001498 101.4980 258.6319 13.15546684210427
ONEWEB-0222             
1 48775U 21045J   25275.13788692 -.00000080  00000+0 -24763-3 0  9992
2 48775  87.8999 310.6724 0001793 100.1167 260.0166 13.15547739210472
ONEWEB-0244             
1 48776U 21045K   25275.08795406  .00000115  00000+0  27055-3 0  9992
2 48776  87.9008 310.6659 0001761  97.8615 262.2715 13.15546847211033
ONEWEB-0247             
1 48777U 21045L   25275.08479645  .00000116  00000+0  27492-3 0  9993
2 48777  87.8996 310.7330 0001114 120.7732 239.3508 13.15547354210470
ONEWEB-0245             
1 48778U 21045M   25275.08005125  .00000156  00000+0  37932-3 0  9996
2 48778  87.8996 310.6977 0001955 101.5467 258.5883 13.15548287210444
ONEWEB-0229             
1 48779U 21045N   25275.07528988  .00000105  00000+0  24557-3 0  9996
2 48779  87.8994 310.6982 0001723  94.6930 265.4397 13.15547637210477
ONEWEB-0228             
1 48780U 21045P   25275.10870333  .00000097  00000+0  22343-3 0  9997
2 48780  87.9007 310.6686 0001786  97.2994 262.8339 13.15547665210393
ONEWEB-0232             
1 48781U 21045Q   25275.08322382  .00000187  00000+0  46318-3 0  9999
2 48781  87.8998 310.6652 0001852  95.7928 264.3414 13.15548789210714
ONEWEB-0231             
1 48782U 21045R   25275.13709132 -.00000018  00000+0 -80906-4 0  9995
2 48782  87.8994 310.7052 0001596 100.7252 259.4058 13.15547677210419
ONEWEB-0234             
1 48783U 21045S   25275.09892536  .00000221  00000+0  55369-3 0  9990
2 48783  87.9003 310.6831 0002769 100.1153 260.0290 13.15548305210542
ONEWEB-0238             
1 48784U 21045T   25275.09919081 -.00000107  00000+0 -31767-3 0  9997
2 48784  87.8998 310.6783 0002232  96.2559 263.8825 13.15547889210441
ONEWEB-0240             
1 48785U 21045U   25275.12044620 -.00000023  00000+0 -94158-4 0  9991
2 48785  87.9004 310.6600 0001916 106.9760 253.1580 13.15552023210479
ONEWEB-0246             
1 48786U 21045V   25275.11489457 -.00000210  00000+0 -59322-3 0  9993
2 48786  87.9008 310.6740 0001681  94.6554 265.4768 13.15547478210340
ONEWEB-0210             
1 48787U 21045W   25275.08954801 -.00000072  00000+0 -22563-3 0  9993
2 48787  87.9007 310.6786 0001186 101.1339 258.9925 13.15547992210382
ONEWEB-0214             
1 48788U 21045X   25275.09825429  .00000165  00000+0  40522-3 0  9994
2 48788  87.9006 310.6641 0001406  91.0315 269.0976 13.15550137210359
ONEWEB-0221             
1 48789U 21045Y   25275.10539747  .00000086  00000+0  19388-3 0  9990
2 48789  87.8997 310.6869 0001712 100.7953 259.3370 13.15547727210447
ONEWEB-0213             
1 48790U 21045Z   25275.09429470 -.00000033  00000+0 -12080-3 0  9997
2 48790  87.8995 310.6979 0001637 100.1887 259.9428 13.15548204210503
