[{"OBJECT_NAME":"ONEWEB-0243","OBJECT_ID":"2021-045H","EPOCH":"2025-10-02T01:52:58.507680","MEAN_MOTION":13.15546684,"ECCENTRICITY":0.0001498,"INCLINATION":87.9001,"RA_OF_ASC_NODE":310.7323,"ARG_OF_PERICENTER":101.498,"MEAN_ANOMALY":258.6319,"EPHEMERIS_TYPE":0,"CLASSIFICATION_TYPE":"U","NORAD_CAT_ID":48774,"ELEMENT_SET_NO":999,"REV_AT_EPOCH":21042,"BSTAR":0.0002448,"MEAN_MOTION_DOT":1.05e-6,"MEAN_MOTION_DDOT":0},{"OBJECT_NAME":"ONEWEB-0222","OBJECT_ID":"2021-045J","EPOCH":"2025-10-02T03:18:33.429888","MEAN_MOTION":13.15547739,"ECCENTRICITY":0.0001793,"INCLINATION":87.8999,"RA_OF_ASC_NODE":310.6724,"ARG_OF_PERICENTER":100.1167,"MEAN_ANOMALY":260.0166,"EPHEMERIS_TYPE":0,"CLASSIFICATION_TYPE":"U","NORAD_CAT_ID":48775,"ELEMENT_SET_NO":999,"REV_AT_EPOCH":21047,"BSTAR":-0.00024763,"MEAN_MOTION_DOT":-8.0e-7,"MEAN_MOTION_DDOT":0},{"OBJECT_NAME":"ONEWEB-0244","OBJECT_ID":"2021-045K","EPOCH":"2025-10-02T02:06:39.230784","MEAN_MOTION":13.15546847,"ECCENTRICITY":0.0001761,"INCLINATION":87.9008,"RA_OF_ASC_NODE":310.6659,"ARG_OF_PERICENTER":97.8615,"MEAN_ANOMALY":262.2715,"EPHEMERIS_TYPE":0,"CLASSIFICATION_TYPE":"U","NORAD_CAT_ID":48776,"ELEMENT_SET_NO":999,"REV_AT_EPOCH":21103,"BSTAR":0.00027055,"MEAN_MOTION_DOT":1.15e-6,"MEAN_MOTION_DDOT":0},{"OBJECT_NAME":"ONEWEB-0247","OBJECT_ID":"2021-045L","EPOCH":"2025-10-02T02:02:06.413280","MEAN_MOTION":13.15547354,"ECCENTRICITY":0.0001114,"INCLINATION":87.8996,"RA_OF_ASC_NODE":310.733,"ARG_OF_PERICENTER":120.7732,"MEAN_ANOMALY":239.3508,"EPHEMERIS_TYPE":0,"CLASSIFICATION_TYPE":"U","NORAD_CAT_ID":48777,"ELEMENT_SET_NO":999,"REV_AT_EPOCH":21047,"BSTAR":0.00027492,"MEAN_MOTION_DOT":1.16e-6,"MEAN_MOTION_DDOT":0},{"OBJECT_NAME":"ONEWEB-0245","OBJECT_ID":"2021-045M","EPOCH":"2025-10-02T01:55:16.428000","MEAN_MOTION":13.15548287,"ECCENTRICITY":0.0001955,"INCLINATION":87.8996,"RA_OF_ASC_NODE":310.6977,"ARG_OF_PERICENTER":101.5467,"MEAN_ANOMALY":258.5883,"EPHEMERIS_TYPE":0,"CLASSIFICATION_TYPE":"U","NORAD_CAT_ID":48778,"ELEMENT_SET_NO":999,"REV_AT_EPOCH":21044,"BSTAR":0.00037932,"MEAN_MOTION_DOT":1.56e-6,"MEAN_MOTION_DDOT":0},{"OBJECT_NAME":"ONEWEB-0229","OBJECT_ID":"2021-045N","EPOCH":"2025-10-02T01:48:25.045632","MEAN_MOTION":13.15547637,"ECCENTRICITY":0.0001723,"INCLINATION":87.8994,"RA_OF_ASC_NODE":310.6982,"ARG_OF_PERICENTER":94.693,"MEAN_ANOMALY":265.4397,"EPHEMERIS_TYPE":0,"CLASSIFICATION_TYPE":"U","NORAD_CAT_ID":48779,"ELEMENT_SET_NO":999,"REV_AT_EPOCH":21047,"BSTAR":0.00024557,"MEAN_MOTION_DOT":1.05e-6,"MEAN_MOTION_DDOT":0},{"OBJECT_NAME":"ONEWEB-0228","OBJECT_ID":"2021-045P","EPOCH":"2025-10-02T02:36:31.967712","MEAN_MOTION":13.15547665,"ECCENTRICITY":0.0001786,"INCLINATION":87.9007,"RA_OF_ASC_NODE":310.6686,"ARG_OF_PERICENTER":97.2994,"MEAN_ANOMALY":262.8339,"EPHEMERIS_TYPE":0,"CLASSIFICATION_TYPE":"U","NORAD_CAT_ID":48780,"ELEMENT_SET_NO":999,"REV_AT_EPOCH":21039,"BSTAR":0.00022343,"MEAN_MOTION_DOT":9.7e-7,"MEAN_MOTION_DDOT":0},{"OBJECT_NAME":"ONEWEB-0232","OBJECT_ID":"2021-045Q","EPOCH":"2025-10-02T01:59:50.538048","MEAN_MOTION":13.15548789,"ECCENTRICITY":0.0001852,"INCLINATION":87.8998,"RA_OF_ASC_NODE":310.6652,"ARG_OF_PERICENTER":95.7928,"MEAN_ANOMALY":264.3414,"EPHEMERIS_TYPE":0,"CLASSIFICATION_TYPE":"U","NORAD_CAT_ID":48781,"ELEMENT_SET_NO":999,"REV_AT_EPOCH":21071,"BSTAR":0.00046318,"MEAN_MOTION_DOT":1.87e-6,"MEAN_MOTION_DDOT":0},{"OBJECT_NAME":"ONEWEB-0231","OBJECT_ID":"2021-045R","EPOCH":"2025-10-02T03:17:24.690048","MEAN_MOTION":13.15547677,"ECCENTRICITY":0.0001596,"INCLINATION":87.8994,"RA_OF_ASC_NODE":310.7052,"ARG_OF_PERICENTER":100.7252,"MEAN_ANOMALY":259.4058,"EPHEMERIS_TYPE":0,"CLASSIFICATION_TYPE":"U","NORAD_CAT_ID":48782,"ELEMENT_SET_NO":999,"REV_AT_EPOCH":21041,"BSTAR":-8.0906e-5,"MEAN_MOTION_DOT":-1.8e-7,"MEAN_MOTION_DDOT":0},{"OBJECT_NAME":"ONEWEB-0234","OBJECT_ID":"2021-045S","EPOCH":"2025-10-02T02:22:27.151104","MEAN_MOTION":13.15548305,"ECCENTRICITY":0.0002769,"INCLINATION":87.9003,"RA_OF_ASC_NODE":310.6831,"ARG_OF_PERICENTER":100.1153,"MEAN_ANOMALY":260.029,"EPHEMERIS_TYPE":0,"CLASSIFICATION_TYPE":"U","NORAD_CAT_ID":48783,"ELEMENT_SET_NO":999,"REV_AT_EPOCH":21054,"BSTAR":0.00055369,"MEAN_MOTION_DOT":2.21e-6,"MEAN_MOTION_DDOT":0},{"OBJECT_NAME":"ONEWEB-0238","OBJECT_ID":"2021-045T","EPOCH":"2025-10-02T02:22:50.085984","MEAN_MOTION":13.15547889,"ECCENTRICITY":0.0002232,"INCLINATION":87.8998,"RA_OF_ASC_NODE":310.6783,"ARG_OF_PERICENTER":96.2559,"MEAN_ANOMALY":263.8825,"EPHEMERIS_TYPE":0,"CLASSIFICATION_TYPE":"U","NORAD_CAT_ID":48784,"ELEMENT_SET_NO":999,"REV_AT_EPOCH":21044,"BSTAR":-0.00031767,"MEAN_MOTION_DOT":-1.07e-6,"MEAN_MOTION_DDOT":0},{"OBJECT_NAME":"ONEWEB-0240","OBJECT_ID":"2021-045U","EPOCH":"2025-10-02T02:53:26.551680","MEAN_MOTION":13.15552023,"ECCENTRICITY":0.0001916,"INCLINATION":87.9004,"RA_OF_ASC_NODE":310.66,"ARG_OF_PERICENTER":106.976,"MEAN_ANOMALY":253.158,"EPHEMERIS_TYPE":0,"CLASSIFICATION_TYPE":"U","NORAD_CAT_ID":48785,"ELEMENT_SET_NO":999,"REV_AT_EPOCH":21047,"BSTAR":-9.4158e-5,"MEAN_MOTION_DOT":-2.3e-7,"MEAN_MOTION_DDOT":0},{"OBJECT_NAME":"ONEWEB-0246","OBJECT_ID":"2021-045V","EPOCH":"2025-10-02T02:45:26.890848","MEAN_MOTION":13.15547478,"ECCENTRICITY":0.0001681,"INCLINATION":87.9008,"RA_OF_ASC_NODE":310.674,"ARG_OF_PERICENTER":94.6554,"MEAN_ANOMALY":265.4768,"EPHEMERIS_TYPE":0,"CLASSIFICATION_TYPE":"U","NORAD_CAT_ID":48786,"ELEMENT_SET_NO":999,"REV_AT_EPOCH":21034,"BSTAR":-0.00059322,"MEAN_MOTION_DOT":-2.1e-6,"MEAN_MOTION_DDOT":0},{"OBJECT_NAME":"ONEWEB-0210","OBJECT_ID":"2021-045W","EPOCH":"2025-10-02T02:08:56.948064","MEAN_MOTION":13.15547992,"ECCENTRICITY":0.0001186,"INCLINATION":87.9007,"RA_OF_ASC_NODE":310.6786,"ARG_OF_PERICENTER":101.1339,"MEAN_ANOMALY":258.9925,"EPHEMERIS_TYPE":0,"CLASSIFICATION_TYPE":"U","NORAD_CAT_ID":48787,"ELEMENT_SET_NO":999,"REV_AT_EPOCH":21038,"BSTAR":-0.00022563,"MEAN_MOTION_DOT":-7.2e-7,"MEAN_MOTION_DDOT":0},{"OBJECT_NAME":"ONEWEB-0214","OBJECT_ID":"2021-045X","EPOCH":"2025-10-02T02:21:29.170656","MEAN_MOTION":13.15550137,"ECCENTRICITY":0.0001406,"INCLINATION":87.9006,"RA_OF_ASC_NODE":310.6641,"ARG_OF_PERICENTER":91.0315,"MEAN_ANOMALY":269.0976,"EPHEMERIS_TYPE":0,"CLASSIFICATION_TYPE":"U","NORAD_CAT_ID":48788,"ELEMENT_SET_NO":999,"REV_AT_EPOCH":21035,"BSTAR":0.00040522,"MEAN_MOTION_DOT":1.65e-6,"MEAN_MOTION_DDOT":0},{"OBJECT_NAME":"ONEWEB-0221","OBJECT_ID":"2021-045Y","EPOCH":"2025-10-02T02:31:46.341408","MEAN_MOTION":13.15547727,"ECCENTRICITY":0.0001712,"INCLINATION":87.8997,"RA_OF_ASC_NODE":310.6869,"ARG_OF_PERICENTER":100.7953,"MEAN_ANOMALY":259.337,"EPHEMERIS_TYPE":0,"CLASSIFICATION_TYPE":"U","NORAD_CAT_ID":48789,"ELEMENT_SET_NO":999,"REV_AT_EPOCH":21044,"BSTAR":0.00019388,"MEAN_MOTION_DOT":8.6e-7,"MEAN_MOTION_DDOT":0},{"OBJECT_NAME":"ONEWEB-0213","OBJECT_ID":"2021-045Z","EPOCH":"2025-10-02T02:15:47.062080","MEAN_MOTION":13.15548204,"ECCENTRICITY":0.0001637,"INCLINATION":87.8995,"RA_OF_ASC_NODE":310.6979,"ARG_OF_PERICENTER":100.1887,"MEAN_ANOMALY":259.9428,"EPHEMERIS_TYPE":0,"CLASSIFICATION_TYPE":"U","NORAD_CAT_ID":48790,"ELEMENT_SET_NO":999,"REV_AT_EPOCH":21050,"BSTAR":-0.0001208,"MEAN_MOTION_DOT":-3.3e-7,"MEAN_MOTION_DDOT":0}]
